{"type": "FeatureCollection", "features": [ {"type": "Feature", "properties": {"norad_id": 29808, "name": "FENGYUN 1C DEB", "group": "fengyun-1c-debris", "lat": -35.30535913818317, "lon": 81.54400970157099, "alt_km": 508.3186030336201, "timestamp": "2025-12-15T04:01:20.722954+00:00", "meta": {"OBJECT_NAME": "FENGYUN 1C DEB", "OBJECT_ID": "1999-025DA", "EPOCH": "2025-12-14T07:08:05.620128", "MEAN_MOTION": 15.23368759, "ECCENTRICITY": 0.00194116, "INCLINATION": 99.013, "RA_OF_ASC_NODE": 266.954, "ARG_OF_PERICENTER": 91.6663, "MEAN_ANOMALY": 33.0109, "EPHEMERIS_TYPE": 0, "CLASSIFICATION_TYPE": "U", "NORAD_CAT_ID": 29808, "ELEMENT_SET_NO": 999, "REV_AT_EPOCH": 98249, "BSTAR": 0.013289604, "MEAN_MOTION_DOT": 0.00331546, "MEAN_MOTION_DDOT": 0}, "tle": {"line1": "1 29808U 99025DA  25348.29728727  .00331546  00000+0  13290-1 0  9995", "line2": "2 29808  99.0130 266.9540 0019411  91.6663  33.0109 15.23368759982497"}}, "geometry": {"type": "Point", "coordinates": [81.54400970157099, -35.30535913818317]}}, {"type": "Feature", "properties": {"norad_id": 29809, "name": "FENGYUN 1C DEB", "group": "fengyun-1c-debris", "lat": -6.163644238234896, "lon": 131.85397463412147, "alt_km": 816.125162368935, "timestamp": "2025-12-15T04:01:20.722964+00:00", "meta": {"OBJECT_NAME": "FENGYUN 1C DEB", "OBJECT_ID": "1999-025DB", "EPOCH": "2025-12-14T04:00:35.349984", "MEAN_MOTION": 14.46596808, "ECCENTRICITY": 0.0116027, "INCLINATION": 98.86, "RA_OF_ASC_NODE": 311.7732, "ARG_OF_PERICENTER": 345.7403, "MEAN_ANOMALY": 33.4179, "EPHEMERIS_TYPE": 0, "CLASSIFICATION_TYPE": "U", "NORAD_CAT_ID": 29809, "ELEMENT_SET_NO": 999, "REV_AT_EPOCH": 99488, "BSTAR": 0.00046304046, "MEAN_MOTION_DOT": 1.762e-05, "MEAN_MOTION_DDOT": 0}, "tle": {"line1": "1 29809U 99025DB  25348.16707581  .00001762  00000+0  46304-3 0  9995", "line2": "2 29809  98.8600 311.7732 0116027 345.7403  33.4179 14.46596808994884"}}, "geometry": {"type": "Point", "coordinates": [131.85397463412147, -6.163644238234896]}}, {"type": "Feature", "properties": {"norad_id": 29810, "name": "FENGYUN 1C DEB", "group": "fengyun-1c-debris", "lat": 57.01324560179879, "lon": 11.655382651672765, "alt_km": 755.7522073033442, "timestamp": "2025-12-15T04:01:20.722974+00:00", "meta": {"OBJECT_NAME": "FENGYUN 1C DEB", "OBJECT_ID": "1999-025DC", "EPOCH": "2025-12-14T01:07:53.359968", "MEAN_MOTION": 14.29132055, "ECCENTRICITY": 0.00668685, "INCLINATION": 99.2067, "RA_OF_ASC_NODE": 24.9429, "ARG_OF_PERICENTER": 15.2408, "MEAN_ANOMALY": 41.0688, "EPHEMERIS_TYPE": 0, "CLASSIFICATION_TYPE": "U", "NORAD_CAT_ID": 29810, "ELEMENT_SET_NO": 999, "REV_AT_EPOCH": 98396, "BSTAR": 0.00034402223, "MEAN_MOTION_DOT": 8.45e-06, "MEAN_MOTION_DDOT": 0}, "tle": {"line1": "1 29810U 99025DC  25348.04714537  .00000845  00000+0  34402-3 0  9990", "line2": "2 29810  99.2067  24.9429 0066868  15.2408  41.0688 14.29132055983963"}}, "geometry": {"type": "Point", "coordinates": [11.655382651672765, 57.01324560179879]}}, {"type": "Feature", "properties": {"norad_id": 29812, "name": "FENGYUN 1C DEB", "group": "fengyun-1c-debris", "lat": 59.43051893624606, "lon": 163.40779504818778, "alt_km": 897.1187025049694, "timestamp": "2025-12-15T04:01:20.722984+00:00", "meta": {"OBJECT_NAME": "FENGYUN 1C DEB", "OBJECT_ID": "1999-025DE", "EPOCH": "2025-12-13T10:56:41.742816", "MEAN_MOTION": 14.01992741, "ECCENTRICITY": 0.0143936, "INCLINATION": 98.3509, "RA_OF_ASC_NODE": 176.2379, "ARG_OF_PERICENTER": 325.7429, "MEAN_ANOMALY": 99.4246, "EPHEMERIS_TYPE": 0, "CLASSIFICATION_TYPE": "U", "NORAD_CAT_ID": 29812, "ELEMENT_SET_NO": 999, "REV_AT_EPOCH": 96182, "BSTAR": 0.0016246074, "MEAN_MOTION_DOT": 2.673e-05, "MEAN_MOTION_DDOT": 0}, "tle": {"line1": "1 29812U 99025DE  25347.45603869  .00002673  00000+0  16246-2 0  9997", "line2": "2 29812  98.3509 176.2379 0143936 325.7429  99.4246 14.01992741961829"}}, "geometry": {"type": "Point", "coordinates": [163.40779504818778, 59.43051893624606]}}, {"type": "Feature", "properties": {"norad_id": 29813, "name": "FENGYUN 1C DEB", "group": "fengyun-1c-debris", "lat": 64.79955059876283, "lon": -151.9954799729283, "alt_km": 856.5514949603703, "timestamp": "2025-12-15T04:01:20.722994+00:00", "meta": {"OBJECT_NAME": "FENGYUN 1C DEB", "OBJECT_ID": "1999-025DF", "EPOCH": "2025-12-14T07:20:31.081056", "MEAN_MOTION": 14.0945163, "ECCENTRICITY": 0.00118858, "INCLINATION": 98.7274, "RA_OF_ASC_NODE": 8.1175, "ARG_OF_PERICENTER": 217.3137, "MEAN_ANOMALY": 206.7315, "EPHEMERIS_TYPE": 0, "CLASSIFICATION_TYPE": "U", "NORAD_CAT_ID": 29813, "ELEMENT_SET_NO": 999, "REV_AT_EPOCH": 97282, "BSTAR": 0.00010698047, "MEAN_MOTION_DOT": 1.44e-06, "MEAN_MOTION_DDOT": 0}, "tle": {"line1": "1 29813U 99025DF  25348.30591529  .00000144  00000+0  10698-3 0  9999", "line2": "2 29813  98.7274   8.1175 0011885 217.3137 206.7315 14.09451630972826"}}, "geometry": {"type": "Point", "coordinates": [-151.9954799729283, 64.79955059876283]}}, {"type": "Feature", "properties": {"norad_id": 29815, "name": "FENGYUN 1C DEB", "group": "fengyun-1c-debris", "lat": -26.39917660632653, "lon": 173.59908937355817, "alt_km": 659.7455352064917, "timestamp": "2025-12-15T04:01:20.723004+00:00", "meta": {"OBJECT_NAME": "FENGYUN 1C DEB", "OBJECT_ID": "1999-025DH", "EPOCH": "2025-12-14T00:50:53.791584", "MEAN_MOTION": 14.63726976, "ECCENTRICITY": 0.01840424, "INCLINATION": 98.0562, "RA_OF_ASC_NODE": 356.5232, "ARG_OF_PERICENTER": 131.1399, "MEAN_ANOMALY": 230.5852, "EPHEMERIS_TYPE": 0, "CLASSIFICATION_TYPE": "U", "NORAD_CAT_ID": 29815, "ELEMENT_SET_NO": 999, "REV_AT_EPOCH": 99874, "BSTAR": 0.00061239291, "MEAN_MOTION_DOT": 4.029e-05, "MEAN_MOTION_DDOT": 0}, "tle": {"line1": "1 29815U 99025DH  25348.03534481  .00004029  00000+0  61239-3 0  9998", "line2": "2 29815  98.0562 356.5232 0184042 131.1399 230.5852 14.63726976998742"}}, "geometry": {"type": "Point", "coordinates": [173.59908937355817, -26.39917660632653]}}, {"type": "Feature", "properties": {"norad_id": 29816, "name": "FENGYUN 1C DEB", "group": "fengyun-1c-debris", "lat": -22.977695479226437, "lon": 25.45593938524878, "alt_km": 606.8304269709533, "timestamp": "2025-12-15T04:01:20.723014+00:00", "meta": {"OBJECT_NAME": "FENGYUN 1C DEB", "OBJECT_ID": "1999-025DJ", "EPOCH": "2025-12-14T02:54:32.646816", "MEAN_MOTION": 14.4432091, "ECCENTRICITY": 0.02377531, "INCLINATION": 98.9935, "RA_OF_ASC_NODE": 208.1992, "ARG_OF_PERICENTER": 173.0036, "MEAN_ANOMALY": 351.0174, "EPHEMERIS_TYPE": 0, "CLASSIFICATION_TYPE": "U", "NORAD_CAT_ID": 29816, "ELEMENT_SET_NO": 999, "REV_AT_EPOCH": 98207, "BSTAR": 0.0012291979, "MEAN_MOTION_DOT": 5.925e-05, "MEAN_MOTION_DDOT": 0}, "tle": {"line1": "1 29816U 99025DJ  25348.12121119  .00005925  00000+0  12292-2 0  9999", "line2": "2 29816  98.9935 208.1992 0237753 173.0036 351.0174 14.44320910982074"}}, "geometry": {"type": "Point", "coordinates": [25.45593938524878, -22.977695479226437]}}, {"type": "Feature", "properties": {"norad_id": 29817, "name": "FENGYUN 1C DEB", "group": "fengyun-1c-debris", "lat": -57.81802701639389, "lon": 144.4213313910524, "alt_km": 857.5722698349509, "timestamp": "2025-12-15T04:01:20.723025+00:00", "meta": {"OBJECT_NAME": "FENGYUN 1C DEB", "OBJECT_ID": "1999-025DK", "EPOCH": "2025-12-14T05:06:54.154656", "MEAN_MOTION": 14.14254661, "ECCENTRICITY": 0.00121957, "INCLINATION": 98.5576, "RA_OF_ASC_NODE": 337.3508, "ARG_OF_PERICENTER": 11.5841, "MEAN_ANOMALY": 50.5189, "EPHEMERIS_TYPE": 0, "CLASSIFICATION_TYPE": "U", "NORAD_CAT_ID": 29817, "ELEMENT_SET_NO": 999, "REV_AT_EPOCH": 97416, "BSTAR": 0.00043415471, "MEAN_MOTION_DOT": 7.87e-06, "MEAN_MOTION_DDOT": 0}, "tle": {"line1": "1 29817U 99025DK  25348.21312679  .00000787  00000+0  43415-3 0  9996", "line2": "2 29817  98.5576 337.3508 0012195  11.5841  50.5189 14.14254661974165"}}, "geometry": {"type": "Point", "coordinates": [144.4213313910524, -57.81802701639389]}}, {"type": "Feature", "properties": {"norad_id": 29818, "name": "FENGYUN 1C DEB", "group": "fengyun-1c-debris", "lat": -66.35906244189128, "lon": 25.85988691253301, "alt_km": 939.9323194951294, "timestamp": "2025-12-15T04:01:20.723035+00:00", "meta": {"OBJECT_NAME": "FENGYUN 1C DEB", "OBJECT_ID": "1999-025DL", "EPOCH": "2025-12-14T06:50:43.911744", "MEAN_MOTION": 14.04501853, "ECCENTRICITY": 0.01151889, "INCLINATION": 98.721, "RA_OF_ASC_NODE": 225.5392, "ARG_OF_PERICENTER": 21.5362, "MEAN_ANOMALY": 88.3862, "EPHEMERIS_TYPE": 0, "CLASSIFICATION_TYPE": "U", "NORAD_CAT_ID": 29818, "ELEMENT_SET_NO": 999, "REV_AT_EPOCH": 96831, "BSTAR": 0.0002026806, "MEAN_MOTION_DOT": 3.01e-06, "MEAN_MOTION_DDOT": 0}, "tle": {"line1": "1 29818U 99025DL  25348.28523046  .00000301  00000+0  20268-3 0  9999", "line2": "2 29818  98.7210 225.5392 0115188  21.5362  88.3862 14.04501853968311"}}, "geometry": {"type": "Point", "coordinates": [25.85988691253301, -66.35906244189128]}}, {"type": "Feature", "properties": {"norad_id": 29819, "name": "FENGYUN 1C DEB", "group": "fengyun-1c-debris", "lat": -20.977592286678775, "lon": -23.812664932993055, "alt_km": 868.0055200225934, "timestamp": "2025-12-15T04:01:20.723065+00:00", "meta": {"OBJECT_NAME": "FENGYUN 1C DEB", "OBJECT_ID": "1999-025DM", "EPOCH": "2025-12-13T23:19:31.505088", "MEAN_MOTION": 14.02198439, "ECCENTRICITY": 0.01914952, "INCLINATION": 98.7323, "RA_OF_ASC_NODE": 331.6627, "ARG_OF_PERICENTER": 63.6378, "MEAN_ANOMALY": 4.9094, "EPHEMERIS_TYPE": 0, "CLASSIFICATION_TYPE": "U", "NORAD_CAT_ID": 29819, "ELEMENT_SET_NO": 999, "REV_AT_EPOCH": 96637, "BSTAR": 0.00056496551, "MEAN_MOTION_DOT": 9.75e-06, "MEAN_MOTION_DDOT": 0}, "tle": {"line1": "1 29819U 99025DM  25347.97189242  .00000975  00000+0  56497-3 0  9991", "line2": "2 29819  98.7323 331.6627 0191495  63.6378   4.9094 14.02198439966371"}}, "geometry": {"type": "Point", "coordinates": [-23.812664932993055, -20.977592286678775]}}]}